{"type": "FeatureCollection", "features": [ {"type": "Feature", "properties": {"norad_id": 35834, "name": "COSMOS 2251 DEB", "group": "cosmos-2251-debris", "lat": 42.04080088743971, "lon": 92.33854848396977, "alt_km": 794.370879746868, "timestamp": "2025-12-22T08:58:20.759467+00:00", "meta": {"OBJECT_NAME": "COSMOS 2251 DEB", "OBJECT_ID": "1993-036ATG", "EPOCH": "2025-12-18T21:21:21.733632", "MEAN_MOTION": 14.12989535, "ECCENTRICITY": 0.01093187, "INCLINATION": 73.9334, "RA_OF_ASC_NODE": 293.5971, "ARG_OF_PERICENTER": 92.3571, "MEAN_ANOMALY": 326.954, "EPHEMERIS_TYPE": 0, "CLASSIFICATION_TYPE": "U", "NORAD_CAT_ID": 35834, "ELEMENT_SET_NO": 999, "REV_AT_EPOCH": 66350, "BSTAR": 0.00038881457, "MEAN_MOTION_DOT": 7.43e-06, "MEAN_MOTION_DDOT": 0}, "tle": {"line1": "1 35834U 93036ATG 25352.88983488  .00000743  00000+0  38881-3 0  9991", "line2": "2 35834  73.9334 293.5971 0109318  92.3571 326.9540 14.12989535663505"}}, "geometry": {"type": "Point", "coordinates": [92.33854848396977, 42.04080088743971]}}, {"type": "Feature", "properties": {"norad_id": 35835, "name": "COSMOS 2251 DEB", "group": "cosmos-2251-debris", "lat": 63.76149301865383, "lon": 36.812865215644635, "alt_km": 901.8725749175765, "timestamp": "2025-12-22T08:58:20.759477+00:00", "meta": {"OBJECT_NAME": "COSMOS 2251 DEB", "OBJECT_ID": "1993-036ATH", "EPOCH": "2025-12-21T23:46:51.040128", "MEAN_MOTION": 13.82917227, "ECCENTRICITY": 0.0291156, "INCLINATION": 74.0637, "RA_OF_ASC_NODE": 252.8841, "ARG_OF_PERICENTER": 32.3711, "MEAN_ANOMALY": 329.4908, "EPHEMERIS_TYPE": 0, "CLASSIFICATION_TYPE": "U", "NORAD_CAT_ID": 35835, "ELEMENT_SET_NO": 999, "REV_AT_EPOCH": 61827, "BSTAR": 0.0013812, "MEAN_MOTION_DOT": 2.065e-05, "MEAN_MOTION_DDOT": 0}, "tle": {"line1": "1 35835U 93036ATH 25355.99086852  .00002065  00000+0  13812-2 0  9991", "line2": "2 35835  74.0637 252.8841 0291156  32.3711 329.4908 13.82917227618275"}}, "geometry": {"type": "Point", "coordinates": [36.812865215644635, 63.76149301865383]}}, {"type": "Feature", "properties": {"norad_id": 35836, "name": "COSMOS 2251 DEB", "group": "cosmos-2251-debris", "lat": 37.22091231067468, "lon": -38.34179541259652, "alt_km": 648.8236860342367, "timestamp": "2025-12-22T08:58:20.759487+00:00", "meta": {"OBJECT_NAME": "COSMOS 2251 DEB", "OBJECT_ID": "1993-036ATJ", "EPOCH": "2025-12-21T04:35:14.629056", "MEAN_MOTION": 14.71143018, "ECCENTRICITY": 0.0023624, "INCLINATION": 74.0314, "RA_OF_ASC_NODE": 156.518, "ARG_OF_PERICENTER": 214.2793, "MEAN_ANOMALY": 145.6856, "EPHEMERIS_TYPE": 0, "CLASSIFICATION_TYPE": "U", "NORAD_CAT_ID": 35836, "ELEMENT_SET_NO": 999, "REV_AT_EPOCH": 63644, "BSTAR": 0.0015319, "MEAN_MOTION_DOT": 9.451e-05, "MEAN_MOTION_DDOT": 0}, "tle": {"line1": "1 35836U 93036ATJ 25355.19114154  .00009451  00000+0  15319-2 0  9991", "line2": "2 35836  74.0314 156.5180 0023624 214.2793 145.6856 14.71143018636445"}}, "geometry": {"type": "Point", "coordinates": [-38.34179541259652, 37.22091231067468]}}, {"type": "Feature", "properties": {"norad_id": 35837, "name": "COSMOS 2251 DEB", "group": "cosmos-2251-debris", "lat": -57.765977654375746, "lon": 163.9952742059228, "alt_km": 1339.154409767254, "timestamp": "2025-12-22T08:58:20.759497+00:00", "meta": {"OBJECT_NAME": "COSMOS 2251 DEB", "OBJECT_ID": "1993-036ATK", "EPOCH": "2025-12-20T04:59:29.154912", "MEAN_MOTION": 13.63523619, "ECCENTRICITY": 0.04220249, "INCLINATION": 73.7219, "RA_OF_ASC_NODE": 195.2026, "ARG_OF_PERICENTER": 114.812, "MEAN_ANOMALY": 356.3531, "EPHEMERIS_TYPE": 0, "CLASSIFICATION_TYPE": "U", "NORAD_CAT_ID": 35837, "ELEMENT_SET_NO": 999, "REV_AT_EPOCH": 58078, "BSTAR": 0.0020383632, "MEAN_MOTION_DOT": 2.925e-05, "MEAN_MOTION_DDOT": 0}, "tle": {"line1": "1 35837U 93036ATK 25354.20797633  .00002925  00000+0  20384-2 0  9999", "line2": "2 35837  73.7219 195.2026 0422024 114.8120 356.3531 13.63523619580786"}}, "geometry": {"type": "Point", "coordinates": [163.9952742059228, -57.765977654375746]}}, {"type": "Feature", "properties": {"norad_id": 35839, "name": "COSMOS 2251 DEB", "group": "cosmos-2251-debris", "lat": 39.84309846069877, "lon": 108.74859631106726, "alt_km": 381.5898323660058, "timestamp": "2025-12-22T08:58:20.759507+00:00", "meta": {"OBJECT_NAME": "COSMOS 2251 DEB", "OBJECT_ID": "1993-036ATM", "EPOCH": "2025-12-21T21:36:04.549824", "MEAN_MOTION": 15.58791882, "ECCENTRICITY": 0.0007158, "INCLINATION": 74.2033, "RA_OF_ASC_NODE": 303.4558, "ARG_OF_PERICENTER": 136.4067, "MEAN_ANOMALY": 223.7719, "EPHEMERIS_TYPE": 0, "CLASSIFICATION_TYPE": "U", "NORAD_CAT_ID": 35839, "ELEMENT_SET_NO": 999, "REV_AT_EPOCH": 88710, "BSTAR": 0.006353, "MEAN_MOTION_DOT": 0.00524141, "MEAN_MOTION_DDOT": 0}, "tle": {"line1": "1 35839U 93036ATM 25355.90005266  .00524141  00000+0  63530-2 0  9992", "line2": "2 35839  74.2033 303.4558 0007158 136.4067 223.7719 15.58791882887104"}}, "geometry": {"type": "Point", "coordinates": [108.74859631106726, 39.84309846069877]}}, {"type": "Feature", "properties": {"norad_id": 35840, "name": "COSMOS 2251 DEB", "group": "cosmos-2251-debris", "lat": 17.39981613481009, "lon": -44.856254117492256, "alt_km": 807.2905641816305, "timestamp": "2025-12-22T08:58:20.759517+00:00", "meta": {"OBJECT_NAME": "COSMOS 2251 DEB", "OBJECT_ID": "1993-036ATN", "EPOCH": "2025-12-12T04:26:56.474304", "MEAN_MOTION": 14.37821687, "ECCENTRICITY": 0.01162768, "INCLINATION": 73.9307, "RA_OF_ASC_NODE": 159.2062, "ARG_OF_PERICENTER": 61.7798, "MEAN_ANOMALY": 299.5037, "EPHEMERIS_TYPE": 0, "CLASSIFICATION_TYPE": "U", "NORAD_CAT_ID": 35840, "ELEMENT_SET_NO": 999, "REV_AT_EPOCH": 85283, "BSTAR": 0.0026691111, "MEAN_MOTION_DOT": 8.683e-05, "MEAN_MOTION_DDOT": 0}, "tle": {"line1": "1 35840U 93036ATN 25346.18537586  .00008683  00000+0  26691-2 0  9994", "line2": "2 35840  73.9307 159.2062 0116276  61.7798 299.5037 14.37821687852835"}}, "geometry": {"type": "Point", "coordinates": [-44.856254117492256, 17.39981613481009]}}, {"type": "Feature", "properties": {"norad_id": 35883, "name": "COSMOS 2251 DEB", "group": "cosmos-2251-debris", "lat": -57.608577212580606, "lon": -101.25077416556103, "alt_km": 702.4750374504938, "timestamp": "2025-12-22T08:58:20.759527+00:00", "meta": {"OBJECT_NAME": "COSMOS 2251 DEB", "OBJECT_ID": "1993-036ATW", "EPOCH": "2025-12-16T04:41:35.789568", "MEAN_MOTION": 14.50615193, "ECCENTRICITY": 0.00835028, "INCLINATION": 74.0253, "RA_OF_ASC_NODE": 63.5249, "ARG_OF_PERICENTER": 192.1269, "MEAN_ANOMALY": 197.0315, "EPHEMERIS_TYPE": 0, "CLASSIFICATION_TYPE": "U", "NORAD_CAT_ID": 35883, "ELEMENT_SET_NO": 999, "REV_AT_EPOCH": 62436, "BSTAR": 0.00022216854, "MEAN_MOTION_DOT": 8.82e-06, "MEAN_MOTION_DDOT": 0}, "tle": {"line1": "1 35883U 93036ATW 25350.19555312  .00000882  00000+0  22217-3 0  9998", "line2": "2 35883  74.0253  63.5249 0083502 192.1269 197.0315 14.50615193624369"}}, "geometry": {"type": "Point", "coordinates": [-101.25077416556103, -57.608577212580606]}}, {"type": "Feature", "properties": {"norad_id": 35884, "name": "COSMOS 2251 DEB", "group": "cosmos-2251-debris", "lat": 1.2351634215313463, "lon": 138.2130387564524, "alt_km": 788.1766943517378, "timestamp": "2025-12-22T08:58:20.759537+00:00", "meta": {"OBJECT_NAME": "COSMOS 2251 DEB", "OBJECT_ID": "1993-036ATX", "EPOCH": "2025-12-16T07:19:09.379488", "MEAN_MOTION": 14.25680751, "ECCENTRICITY": 0.01084022, "INCLINATION": 73.9902, "RA_OF_ASC_NODE": 329.5521, "ARG_OF_PERICENTER": 115.5254, "MEAN_ANOMALY": 245.7151, "EPHEMERIS_TYPE": 0, "CLASSIFICATION_TYPE": "U", "NORAD_CAT_ID": 35884, "ELEMENT_SET_NO": 999, "REV_AT_EPOCH": 22408, "BSTAR": 0.00087030299, "MEAN_MOTION_DOT": 2.171e-05, "MEAN_MOTION_DDOT": 0}, "tle": {"line1": "1 35884U 93036ATX 25350.30496967  .00002171  00000+0  87030-3 0  9999", "line2": "2 35884  73.9902 329.5521 0108402 115.5254 245.7151 14.25680751224085"}}, "geometry": {"type": "Point", "coordinates": [138.2130387564524, 1.2351634215313463]}}, {"type": "Feature", "properties": {"norad_id": 35885, "name": "COSMOS 2251 DEB", "group": "cosmos-2251-debris", "lat": 17.295502338905013, "lon": -77.82536211126974, "alt_km": 751.1974541136742, "timestamp": "2025-12-22T08:58:20.759548+00:00", "meta": {"OBJECT_NAME": "COSMOS 2251 DEB", "OBJECT_ID": "1993-036ATY", "EPOCH": "2025-12-20T03:26:35.075328", "MEAN_MOTION": 14.37533369, "ECCENTRICITY": 0.00236117, "INCLINATION": 74.0287, "RA_OF_ASC_NODE": 281.1634, "ARG_OF_PERICENTER": 0.0497, "MEAN_ANOMALY": 0.0654, "EPHEMERIS_TYPE": 0, "CLASSIFICATION_TYPE": "U", "NORAD_CAT_ID": 35885, "ELEMENT_SET_NO": 999, "REV_AT_EPOCH": 65122, "BSTAR": 0.00021713075, "MEAN_MOTION_DOT": 6.26e-06, "MEAN_MOTION_DDOT": 0}, "tle": {"line1": "1 35885U 93036ATY 25354.14346152  .00000626  00000+0  21713-3 0  9995", "line2": "2 35885  74.0287 281.1634 0023611   0.0497   0.0654 14.37533369651222"}}, "geometry": {"type": "Point", "coordinates": [-77.82536211126974, 17.295502338905013]}}, {"type": "Feature", "properties": {"norad_id": 35888, "name": "COSMOS 2251 DEB", "group": "cosmos-2251-debris", "lat": -26.511757228437343, "lon": -29.88027310126342, "alt_km": 727.8616560284454, "timestamp": "2025-12-22T08:58:20.759558+00:00", "meta": {"OBJECT_NAME": "COSMOS 2251 DEB", "OBJECT_ID": "1993-036AUB", "EPOCH": "2025-12-19T16:53:26.890080", "MEAN_MOTION": 14.58341015, "ECCENTRICITY": 0.00479832, "INCLINATION": 74.0337, "RA_OF_ASC_NODE": 343.4108, "ARG_OF_PERICENTER": 113.3266, "MEAN_ANOMALY": 247.2958, "EPHEMERIS_TYPE": 0, "CLASSIFICATION_TYPE": "U", "NORAD_CAT_ID": 35888, "ELEMENT_SET_NO": 999, "REV_AT_EPOCH": 86375, "BSTAR": 0.00026393359, "MEAN_MOTION_DOT": 1.211e-05, "MEAN_MOTION_DDOT": 0}, "tle": {"line1": "1 35888U 93036AUB 25353.70378345  .00001211  00000+0  26393-3 0  9998", "line2": "2 35888  74.0337 343.4108 0047983 113.3266 247.2958 14.58341015863752"}}, "geometry": {"type": "Point", "coordinates": [-29.88027310126342, -26.511757228437343]}}]}